GLOBALSTAR M023         
1 25621U 99004A   25048.43417604 -.00000072  00000+0  17934-3 0  9992
2 25621  52.0111  58.0914 0009883 221.7684 286.2680 12.62495342200601
GLOBALSTAR M040         
1 25622U 99004B   25048.52518843 -.00000078  00000+0  14567-3 0  9995
2 25622  51.9920  61.7901 0001103 127.6903  39.3128 12.62001721200147
GLOBALSTAR M036         
1 25623U 99004C   25048.59885884 -.00000076  00000+0  10005-3 0  9996
2 25623  51.9946 195.5282 0011397 179.8377 262.4742 11.86592008164782
GLOBALSTAR M038         
1 25624U 99004D   25048.58150238 -.00000081  00000+0  11388-3 0  9995
2 25624  51.9977  56.0201 0002013 159.2980 356.4876 12.32520619187627
GLOBALSTAR M022         
1 25649U 99012A   25048.62229594 -.00000044  00000+0  51502-3 0  9999
2 25649  52.0016 255.9360 0001670 310.6193  88.3134 12.02496059161990
GLOBALSTAR M041         
1 25650U 99012B   25048.60729288 -.00000099  00000+0 -18164-3 0  9992
2 25650  52.0016 133.7814 0002328  94.5150 265.5953 11.96670820163960
GLOBALSTAR M046         
1 25651U 99012C   25048.59214991  .00000042  00000+0  14418-2 0  9994
2 25651  52.0027 210.5140 0002505  38.9882  37.2493 12.09406783169194
